CCSDS_OMM_VERS = 2.0
CREATION_DATE  = 
ORIGINATOR     = 

OBJECT_NAME    = PROGRESS-MS 32
OBJECT_ID      = 2025-204A
CENTER_NAME    = EARTH
REF_FRAME      = TEME
TIME_SYSTEM    = UTC
MEAN_ELEMENT_THEORY = SGP/SGP4

EPOCH          = 2025-11-23T04:33:29.811168
MEAN_MOTION    = 15.49010020
ECCENTRICITY   = .00039038
INCLINATION    = 51.6318
RA_OF_ASC_NODE = 239.2442
ARG_OF_PERICENTER = 158.2569
MEAN_ANOMALY   = 201.8586

EPHEMERIS_TYPE = 0
CLASSIFICATION_TYPE = U
NORAD_CAT_ID   = 65586
ELEMENT_SET_NO = 999
REV_AT_EPOCH   = 27
BSTAR          = .2556993E-3
MEAN_MOTION_DOT = .13668E-3
MEAN_MOTION_DDOT = 0

CCSDS_OMM_VERS = 2.0
CREATION_DATE  = 
ORIGINATOR     = 

OBJECT_NAME    = CYGNUS NG-23
OBJECT_ID      = 2025-208A
CENTER_NAME    = EARTH
REF_FRAME      = TEME
TIME_SYSTEM    = UTC
MEAN_ELEMENT_THEORY = SGP/SGP4

EPOCH          = 2025-11-23T04:33:29.811168
MEAN_MOTION    = 15.49010020
ECCENTRICITY   = .00039038
INCLINATION    = 51.6318
RA_OF_ASC_NODE = 239.2442
ARG_OF_PERICENTER = 158.2569
MEAN_ANOMALY   = 201.8586

EPHEMERIS_TYPE = 0
CLASSIFICATION_TYPE = U
NORAD_CAT_ID   = 65616
ELEMENT_SET_NO = 999
REV_AT_EPOCH   = 22
BSTAR          = .2556993E-3
MEAN_MOTION_DOT = .13668E-3
MEAN_MOTION_DDOT = 0

CCSDS_OMM_VERS = 2.0
CREATION_DATE  = 
ORIGINATOR     = 

OBJECT_NAME    = DRAGONFLY
OBJECT_ID      = 1998-067XH
CENTER_NAME    = EARTH
REF_FRAME      = TEME
TIME_SYSTEM    = UTC
MEAN_ELEMENT_THEORY = SGP/SGP4

EPOCH          = 2025-11-23T04:14:48.352992
MEAN_MOTION    = 15.65438828
ECCENTRICITY   = .00060168
INCLINATION    = 51.6276
RA_OF_ASC_NODE = 235.4085
ARG_OF_PERICENTER = 168.3980
MEAN_ANOMALY   = 191.7155

EPHEMERIS_TYPE = 0
CLASSIFICATION_TYPE = U
NORAD_CAT_ID   = 65729
ELEMENT_SET_NO = 999
REV_AT_EPOCH   = 1009
BSTAR          = .12573121E-2
MEAN_MOTION_DOT = .129782E-2
MEAN_MOTION_DDOT = 0

CCSDS_OMM_VERS = 2.0
CREATION_DATE  = 
ORIGINATOR     = 

OBJECT_NAME    = 1998-067XJ
OBJECT_ID      = 1998-067XJ
CENTER_NAME    = EARTH
REF_FRAME      = TEME
TIME_SYSTEM    = UTC
MEAN_ELEMENT_THEORY = SGP/SGP4

EPOCH          = 2025-11-22T22:55:34.086432
MEAN_MOTION    = 15.88239068
ECCENTRICITY   = .00123675
INCLINATION    = 51.6202
RA_OF_ASC_NODE = 233.1391
ARG_OF_PERICENTER = 170.2831
MEAN_ANOMALY   = 189.8415

EPHEMERIS_TYPE = 0
CLASSIFICATION_TYPE = U
NORAD_CAT_ID   = 65730
ELEMENT_SET_NO = 999
REV_AT_EPOCH   = 1010
BSTAR          = .25529639E-2
MEAN_MOTION_DOT = .717932E-2
MEAN_MOTION_DDOT = .21009386E-3

CCSDS_OMM_VERS = 2.0
CREATION_DATE  = 
ORIGINATOR     = 

OBJECT_NAME    = 1998-067XK
OBJECT_ID      = 1998-067XK
CENTER_NAME    = EARTH
REF_FRAME      = TEME
TIME_SYSTEM    = UTC
MEAN_ELEMENT_THEORY = SGP/SGP4

EPOCH          = 2025-11-23T04:13:59.791008
MEAN_MOTION    = 15.61679765
ECCENTRICITY   = .00060614
INCLINATION    = 51.6300
RA_OF_ASC_NODE = 236.1610
ARG_OF_PERICENTER = 143.5803
MEAN_ANOMALY   = 216.5604

EPHEMERIS_TYPE = 0
CLASSIFICATION_TYPE = U
NORAD_CAT_ID   = 65731
ELEMENT_SET_NO = 999
REV_AT_EPOCH   = 1008
BSTAR          = .96572597E-3
MEAN_MOTION_DOT = .85352E-3
MEAN_MOTION_DDOT = 0

CCSDS_OMM_VERS = 2.0
CREATION_DATE  = 
ORIGINATOR     = 

OBJECT_NAME    = RSP-03
OBJECT_ID      = 1998-067XL
CENTER_NAME    = EARTH
REF_FRAME      = TEME
TIME_SYSTEM    = UTC
MEAN_ELEMENT_THEORY = SGP/SGP4

EPOCH          = 2025-11-23T03:29:51.038304
MEAN_MOTION    = 15.63463384
ECCENTRICITY   = .00068478
INCLINATION    = 51.6289
RA_OF_ASC_NODE = 235.9525
ARG_OF_PERICENTER = 146.5146
MEAN_ANOMALY   = 213.6282

EPHEMERIS_TYPE = 0
CLASSIFICATION_TYPE = U
NORAD_CAT_ID   = 65732
ELEMENT_SET_NO = 999
REV_AT_EPOCH   = 1009
BSTAR          = .11061853E-2
MEAN_MOTION_DOT = .105203E-2
MEAN_MOTION_DDOT = 0

CCSDS_OMM_VERS = 2.0
CREATION_DATE  = 
ORIGINATOR     = 

OBJECT_NAME    = GHS-01
OBJECT_ID      = 1998-067XM
CENTER_NAME    = EARTH
REF_FRAME      = TEME
TIME_SYSTEM    = UTC
MEAN_ELEMENT_THEORY = SGP/SGP4

EPOCH          = 2025-11-23T03:42:12.911040
MEAN_MOTION    = 15.66905655
ECCENTRICITY   = .00065636
INCLINATION    = 51.6299
RA_OF_ASC_NODE = 235.2617
ARG_OF_PERICENTER = 167.3148
MEAN_ANOMALY   = 192.8014

EPHEMERIS_TYPE = 0
CLASSIFICATION_TYPE = U
NORAD_CAT_ID   = 65733
ELEMENT_SET_NO = 999
REV_AT_EPOCH   = 1010
BSTAR          = .14103723E-2
MEAN_MOTION_DOT = .155021E-2
MEAN_MOTION_DDOT = 0

CCSDS_OMM_VERS = 2.0
CREATION_DATE  = 
ORIGINATOR     = 

OBJECT_NAME    = YOTSUBA-KULOVER
OBJECT_ID      = 1998-067XN
CENTER_NAME    = EARTH
REF_FRAME      = TEME
TIME_SYSTEM    = UTC
MEAN_ELEMENT_THEORY = SGP/SGP4

EPOCH          = 2025-11-23T03:32:09.566016
MEAN_MOTION    = 15.56437686
ECCENTRICITY   = .000245
INCLINATION    = 51.6309
RA_OF_ASC_NODE = 238.2129
ARG_OF_PERICENTER = 116.5911
MEAN_ANOMALY   = 243.5332

EPHEMERIS_TYPE = 0
CLASSIFICATION_TYPE = U
NORAD_CAT_ID   = 65941
ELEMENT_SET_NO = 999
REV_AT_EPOCH   = 680
BSTAR          = .91123891E-3
MEAN_MOTION_DOT = .65728E-3
MEAN_MOTION_DDOT = 0

CCSDS_OMM_VERS = 2.0
CREATION_DATE  = 
ORIGINATOR     = 

OBJECT_NAME    = BOTAN
OBJECT_ID      = 1998-067XP
CENTER_NAME    = EARTH
REF_FRAME      = TEME
TIME_SYSTEM    = UTC
MEAN_ELEMENT_THEORY = SGP/SGP4

EPOCH          = 2025-11-23T02:55:38.193312
MEAN_MOTION    = 15.58437580
ECCENTRICITY   = .00046938
INCLINATION    = 51.6299
RA_OF_ASC_NODE = 238.0444
ARG_OF_PERICENTER = 122.4303
MEAN_ANOMALY   = 237.7144

EPHEMERIS_TYPE = 0
CLASSIFICATION_TYPE = U
NORAD_CAT_ID   = 65942
ELEMENT_SET_NO = 999
REV_AT_EPOCH   = 680
BSTAR          = .10128064E-2
MEAN_MOTION_DOT = .78973E-3
MEAN_MOTION_DDOT = 0

CCSDS_OMM_VERS = 2.0
CREATION_DATE  = 
ORIGINATOR     = 

OBJECT_NAME    = E-KAGAKU-1
OBJECT_ID      = 1998-067XQ
CENTER_NAME    = EARTH
REF_FRAME      = TEME
TIME_SYSTEM    = UTC
MEAN_ELEMENT_THEORY = SGP/SGP4

EPOCH          = 2025-11-23T00:26:46.640832
MEAN_MOTION    = 15.56396401
ECCENTRICITY   = .0004016
INCLINATION    = 51.6318
RA_OF_ASC_NODE = 238.8550
ARG_OF_PERICENTER = 102.8578
MEAN_ANOMALY   = 257.2863

EPHEMERIS_TYPE = 0
CLASSIFICATION_TYPE = U
NORAD_CAT_ID   = 65943
ELEMENT_SET_NO = 999
REV_AT_EPOCH   = 678
BSTAR          = .77066397E-3
MEAN_MOTION_DOT = .55364E-3
MEAN_MOTION_DDOT = 0

CCSDS_OMM_VERS = 2.0
CREATION_DATE  = 
ORIGINATOR     = 

OBJECT_NAME    = HRC MONOBLOCK CAMERA
OBJECT_ID      = 1998-067XR
CENTER_NAME    = EARTH
REF_FRAME      = TEME
TIME_SYSTEM    = UTC
MEAN_ELEMENT_THEORY = SGP/SGP4

EPOCH          = 2025-11-23T06:50:32.586432
MEAN_MOTION    = 15.52452987
ECCENTRICITY   = .000467
INCLINATION    = 51.6314
RA_OF_ASC_NODE = 238.3786
ARG_OF_PERICENTER = 106.6527
MEAN_ANOMALY   = 253.4976

EPHEMERIS_TYPE = 0
CLASSIFICATION_TYPE = U
NORAD_CAT_ID   = 66052
ELEMENT_SET_NO = 999
REV_AT_EPOCH   = 581
BSTAR          = .5995E-3
MEAN_MOTION_DOT = .37061E-3
MEAN_MOTION_DDOT = 0

CCSDS_OMM_VERS = 2.0
CREATION_DATE  = 
ORIGINATOR     = 

OBJECT_NAME    = HTV-X1
OBJECT_ID      = 2025-241A
CENTER_NAME    = EARTH
REF_FRAME      = TEME
TIME_SYSTEM    = UTC
MEAN_ELEMENT_THEORY = SGP/SGP4

EPOCH          = 2025-11-23T04:33:29.811168
MEAN_MOTION    = 15.49010020
ECCENTRICITY   = .00039038
INCLINATION    = 51.6318
RA_OF_ASC_NODE = 239.2442
ARG_OF_PERICENTER = 158.2569
MEAN_ANOMALY   = 201.8586

EPHEMERIS_TYPE = 0
CLASSIFICATION_TYPE = U
NORAD_CAT_ID   = 66174
ELEMENT_SET_NO = 999
REV_AT_EPOCH   = 145
BSTAR          = .2556993E-3
MEAN_MOTION_DOT = .13668E-3
MEAN_MOTION_DDOT = 0

